ALOS (DAICHI)           
1 28931U 06002A   25351.73419158  .00001110  00000+0  19545-3 0  9994
2 28931  98.1098 303.1864 0001361 113.5739 246.5610 14.69501788 61443
H-2A R/B                
1 28932U 06002B   25354.31660918  .00007435  00000+0  39073-3 0  9998
2 28932  98.2324 129.6850 0054752 150.6762 209.7560 15.14713685 82410
RESURS-DK 1             
1 29228U 06021A   25354.43744860  .00001829  00000+0  11187-3 0  9997
2 29228  69.9339  81.9448 0006870 252.5475 107.4940 15.12200316 75546
CZ-4B R/B               
1 29507U 06046C   25354.09612512  .00002980  00000+0  15683-3 0  9998
2 29507  97.5723  34.2149 0033896 180.7443 179.3744 15.15939749 47983
CZ-2C R/B               
1 31114U 07010B   25354.25713370  .00000094  00000+0  62011-4 0  9991
2 31114  98.3977 106.5296 0059422 164.1443 196.1612 14.20212681968443
COSMO-SKYMED 1          
1 31598U 07023A   25354.48115263  .00002834  00000+0  25917-3 0  9990
2 31598  97.8837 179.9312 0001575  83.5290 276.6110 14.95821839  3069
COSMOS 2428             
1 31792U 07029A   25354.45532741  .00000155  00000+0  10886-3 0  9996
2 31792  70.9365   9.6800 0004101  12.6767 347.4456 14.12892565952903
SL-16 R/B               
1 31793U 07029B   25354.31522176  .00000202  00000+0  12929-3 0  9996
2 31793  70.9758 339.2329 0001927 262.1549 196.5248 14.14816205954140
KORONAS-FOTON           
1 33504U 09003A   25354.48031478  .00007035  00000+0  16731-3 0  9996
2 33504  82.4305 358.0837 0013424  84.3031 275.9746 15.41342280933539
CZ-2C R/B               
1 37731U 11030B   25354.50976661  .00000978  00000+0  13068-3 0  9999
2 37731  97.8425 308.4448 0051393 247.5938 230.4663 14.80924057778374
H-2A R/B                
1 38341U 12025E   25354.40638676  .00001670  00000+0  15819-3 0  9998
2 38341  98.4608 310.2279 0044271 210.7641 149.0981 14.94490376736374
SHIJIAN-16 (SJ-16)      
1 39358U 13057A   25354.51473995  .00001357  00000+0  13636-3 0  9993
2 39358  74.9727 334.9428 0017844 301.7319  58.2130 14.92004364659694
